{
  "type": "FeatureCollection",
  "features": [
    {
      "type": "Feature",
      "properties": {
        "norad_id": 66744,
        "name": "TRANSPORTER-15 CG",
        "group": "last-30-days",
        "lat": -73.96577523946185,
        "lon": -141.18083854143927,
        "alt_km": 520.3850450451528,
        "timestamp": "2025-12-20T05:41:48.742367+00:00",
        "meta_object_name": "TRANSPORTER-15 CG",
        "meta_object_id": "2025-276CG",
        "meta_epoch": "2025-12-19T15:54:39.286944",
        "meta_mean_motion": 15.17300941,
        "meta_eccentricity": 0.00013874,
        "meta_inclination": 97.4425,
        "meta_ra_of_asc_node": 65.3107,
        "meta_arg_of_pericenter": 267.3904,
        "meta_mean_anomaly": 92.7171,
        "meta_ephemeris_type": 0,
        "meta_classification_type": "U",
        "meta_norad_cat_id": 66744,
        "meta_element_set_no": 999,
        "meta_rev_at_epoch": 317,
        "meta_bstar": 9.8834121e-05,
        "meta_mean_motion_dot": 1.903e-05,
        "meta_mean_motion_ddot": 0,
        "tle_line1": "1 66744U 25276CG  25353.66295471  .00001903  00000+0  98834-4 0  9995",
        "tle_line2": "2 66744  97.4425  65.3107 0001387 267.3904  92.7171 15.17300941  3171"
      },
      "geometry": {
        "type": "Point",
        "coordinates": [
          -141.18083854143927,
          -73.96577523946185
        ]
      }
    },
    {
      "type": "Feature",
      "properties": {
        "norad_id": 66745,
        "name": "TRANSPORTER-15 CH",
        "group": "last-30-days",
        "lat": -79.90939632958231,
        "lon": -161.39816309102665,
        "alt_km": 520.4493871835939,
        "timestamp": "2025-12-20T05:41:48.742377+00:00",
        "meta_object_name": "TRANSPORTER-15 CH",
        "meta_object_id": "2025-276CH",
        "meta_epoch": "2025-12-18T03:28:42.797856",
        "meta_mean_motion": 15.17410402,
        "meta_eccentricity": 8.886e-05,
        "meta_inclination": 97.4425,
        "meta_ra_of_asc_node": 63.8169,
        "meta_arg_of_pericenter": 243.2573,
        "meta_mean_anomaly": 116.857,
        "meta_ephemeris_type": 0,
        "meta_classification_type": "U",
        "meta_norad_cat_id": 66745,
        "meta_element_set_no": 999,
        "meta_rev_at_epoch": 294,
        "meta_bstar": 0.00015034976,
        "meta_mean_motion_dot": 2.939e-05,
        "meta_mean_motion_ddot": 0,
        "tle_line1": "1 66745U 25276CH  25352.14493979  .00002939  00000+0  15035-3 0  9992",
        "tle_line2": "2 66745  97.4425  63.8169 0000888 243.2573 116.8570 15.17410402  2942"
      },
      "geometry": {
        "type": "Point",
        "coordinates": [
          -161.39816309102665,
          -79.90939632958231
        ]
      }
    },
    {
      "type": "Feature",
      "properties": {
        "norad_id": 66746,
        "name": "TRANSPORTER-15 CJ",
        "group": "last-30-days",
        "lat": -79.91108421533693,
        "lon": -161.40631862411098,
        "alt_km": 520.4386854886843,
        "timestamp": "2025-12-20T05:41:48.742390+00:00",
        "meta_object_name": "TRANSPORTER-15 CJ",
        "meta_object_id": "2025-276CJ",
        "meta_epoch": "2025-12-19T04:48:03.204576",
        "meta_mean_motion": 15.17416472,
        "meta_eccentricity": 9.628e-05,
        "meta_inclination": 97.4422,
        "meta_ra_of_asc_node": 64.8535,
        "meta_arg_of_pericenter": 234.0891,
        "meta_mean_anomaly": 126.0254,
        "meta_ephemeris_type": 0,
        "meta_classification_type": "U",
        "meta_norad_cat_id": 66746,
        "meta_element_set_no": 999,
        "meta_rev_at_epoch": 310,
        "meta_bstar": 0.00013979791,
        "meta_mean_motion_dot": 2.728e-05,
        "meta_mean_motion_ddot": 0,
        "tle_line1": "1 66746U 25276CJ  25353.20003709  .00002728  00000+0  13980-3 0  9992",
        "tle_line2": "2 66746  97.4422  64.8535 0000962 234.0891 126.0254 15.17416472  3106"
      },
      "geometry": {
        "type": "Point",
        "coordinates": [
          -161.40631862411098,
          -79.91108421533693
        ]
      }
    },
    {
      "type": "Feature",
      "properties": {
        "norad_id": 66747,
        "name": "TRANSPORTER-15 CK",
        "group": "last-30-days",
        "lat": -82.55226328469013,
        "lon": 155.98850465685595,
        "alt_km": 520.3302288649347,
        "timestamp": "2025-12-20T05:41:48.742400+00:00",
        "meta_object_name": "TRANSPORTER-15 CK",
        "meta_object_id": "2025-276CK",
        "meta_epoch": "2025-12-19T22:00:01.999584",
        "meta_mean_motion": 15.17532436,
        "meta_eccentricity": 0.00010633,
        "meta_inclination": 97.4426,
        "meta_ra_of_asc_node": 65.562,
        "meta_arg_of_pericenter": 214.4398,
        "meta_mean_anomaly": 104.7506,
        "meta_ephemeris_type": 0,
        "meta_classification_type": "U",
        "meta_norad_cat_id": 66747,
        "meta_element_set_no": 999,
        "meta_rev_at_epoch": 130,
        "meta_bstar": -0.0014635307,
        "meta_mean_motion_dot": -0.00029285,
        "meta_mean_motion_ddot": 0,
        "tle_line1": "1 66747U 25276CK  25353.91668981 -.00029285  00000+0 -14635-2 0  9996",
        "tle_line2": "2 66747  97.4426  65.5620 0001063 214.4398 104.7506 15.17532436  1303"
      },
      "geometry": {
        "type": "Point",
        "coordinates": [
          155.98850465685595,
          -82.55226328469013
        ]
      }
    },
    {
      "type": "Feature",
      "properties": {
        "norad_id": 66748,
        "name": "TRANSPORTER-15 CL",
        "group": "last-30-days",
        "lat": -50.75492030643711,
        "lon": 75.09854279715186,
        "alt_km": 517.2977105399277,
        "timestamp": "2025-12-20T05:41:48.742410+00:00",
        "meta_object_name": "TRANSPORTER-15 CL",
        "meta_object_id": "2025-276CL",
        "meta_epoch": "2025-12-19T15:41:16.874592",
        "meta_mean_motion": 15.18382779,
        "meta_eccentricity": 0.00018194,
        "meta_inclination": 97.4418,
        "meta_ra_of_asc_node": 65.3168,
        "meta_arg_of_pericenter": 237.0516,
        "meta_mean_anomaly": 123.0544,
        "meta_ephemeris_type": 0,
        "meta_classification_type": "U",
        "meta_norad_cat_id": 66748,
        "meta_element_set_no": 999,
        "meta_rev_at_epoch": 317,
        "meta_bstar": 0.00063246365,
        "meta_mean_motion_dot": 0.00012947,
        "meta_mean_motion_ddot": 0,
        "tle_line1": "1 66748U 25276CL  25353.65366753  .00012947  00000+0  63246-3 0  9998",
        "tle_line2": "2 66748  97.4418  65.3168 0001819 237.0516 123.0544 15.18382779  3179"
      },
      "geometry": {
        "type": "Point",
        "coordinates": [
          75.09854279715186,
          -50.75492030643711
        ]
      }
    },
    {
      "type": "Feature",
      "properties": {
        "norad_id": 66749,
        "name": "TRANSPORTER-15 CM",
        "group": "last-30-days",
        "lat": -69.02223954632704,
        "lon": 85.81090954233633,
        "alt_km": 519.6500092922461,
        "timestamp": "2025-12-20T05:41:48.742421+00:00",
        "meta_object_name": "TRANSPORTER-15 CM",
        "meta_object_id": "2025-276CM",
        "meta_epoch": "2025-12-19T15:45:59.347296",
        "meta_mean_motion": 15.17830311,
        "meta_eccentricity": 0.00015686,
        "meta_inclination": 97.4412,
        "meta_ra_of_asc_node": 65.3099,
        "meta_arg_of_pericenter": 203.1635,
        "meta_mean_anomaly": 156.9528,
        "meta_ephemeris_type": 0,
        "meta_classification_type": "U",
        "meta_norad_cat_id": 66749,
        "meta_element_set_no": 999,
        "meta_rev_at_epoch": 317,
        "meta_bstar": 0.00021138075,
        "meta_mean_motion_dot": 4.21e-05,
        "meta_mean_motion_ddot": 0,
        "tle_line1": "1 66749U 25276CM  25353.65693689  .00004210  00000+0  21138-3 0  9998",
        "tle_line2": "2 66749  97.4412  65.3099 0001568 203.1635 156.9528 15.17830311  3170"
      },
      "geometry": {
        "type": "Point",
        "coordinates": [
          85.81090954233633,
          -69.02223954632704
        ]
      }
    },
    {
      "type": "Feature",
      "properties": {
        "norad_id": 66750,
        "name": "TRANSPORTER-15 CN",
        "group": "last-30-days",
        "lat": -54.27852813646076,
        "lon": 76.3775696910639,
        "alt_km": 519.9852969009607,
        "timestamp": "2025-12-20T05:41:48.742435+00:00",
        "meta_object_name": "TRANSPORTER-15 CN",
        "meta_object_id": "2025-276CN",
        "meta_epoch": "2025-12-19T14:07:05.956896",
        "meta_mean_motion": 15.17996458,
        "meta_eccentricity": 0.0001806,
        "meta_inclination": 97.4452,
        "meta_ra_of_asc_node": 65.2619,
        "meta_arg_of_pericenter": 160.5037,
        "meta_mean_anomaly": 199.6266,
        "meta_ephemeris_type": 0,
        "meta_classification_type": "U",
        "meta_norad_cat_id": 66750,
        "meta_element_set_no": 999,
        "meta_rev_at_epoch": 316,
        "meta_bstar": 0.00016689,
        "meta_mean_motion_dot": 3.325e-05,
        "meta_mean_motion_ddot": 0,
        "tle_line1": "1 66750U 25276CN  25353.58826339  .00003325  00000+0  16689-3 0  9993",
        "tle_line2": "2 66750  97.4452  65.2619 0001806 160.5037 199.6266 15.17996458  3167"
      },
      "geometry": {
        "type": "Point",
        "coordinates": [
          76.3775696910639,
          -54.27852813646076
        ]
      }
    }
  ]
}